ONEWEB-0683             
1 56719U 23068K   25200.60882582 -.00000089  00000+0 -27084-3 0  9997
2 56719  87.9080 325.4948 0001627  98.0096 262.1219 13.15549000105697
ONEWEB-0684             
1 56720U 23068L   25200.61675011 -.00000060  00000+0 -19252-3 0  9994
2 56720  87.9054 325.5040 0003123  79.5526 280.5956 13.15549133105520
ONEWEB-0686             
1 56721U 23068M   25200.52898435 -.00000025  00000+0 -99062-4 0  9991
2 56721  87.9048 295.1119 0001977  92.5451 267.5906 13.16594933107947
ONEWEB-0694             
1 56722U 23068N   25200.49572678  .00000044  00000+0  81797-4 0  9991
2 56722  87.9065 295.0397 0001579  99.4006 260.7304 13.16595492107997
ONEWEB-0696             
1 56723U 23068P   25200.57396812  .00000209  00000+0  52025-3 0  9999
2 56723  87.9084 325.5547 0002232  97.2322 262.9062 13.15549566105633
ONEWEB-0703             
1 56724U 23068Q   25200.58346879  .00000113  00000+0  26507-3 0  9999
2 56724  87.9064 325.5446 0003074 106.2864 253.8605 13.15547447105523
ONEWEB-0721             
1 56725U 23068R   25200.46302274  .00000058  00000+0  10480-3 0  9999
2 56725  86.6813 191.5501 0001998  87.1094 273.0268 13.22440736113967
ONEWEB-0015             
1 61594U 24188A   25200.42663681 -.00000239  00000+0 -70994-3 0  9990
2 61594  87.8847  87.4243 0001429 100.2393 259.8896 13.11418317 40844
